{"type":"FeatureCollection","features":[{"type":"Feature","geometry":{"type":"Polygon","coordinates":[[[-46.8007,-23.4704],[-46.8082,-23.4846],[-46.899,-23.4911],[-46.9533,-23.4838],[-46.9645,-23.4987],[-46.9296,-23.5132],[-46.8606,-23.5448],[-46.8544,-23.5166],[-46.8174,-23.5207],[-46.7995,-23.4714],[-46.8007,-23.4704]]]},"properties":{"codarea":"3505708","municipio":"Barueri"}},{"type":"Feature","geometry":{"type":"Polygon","coordinates":[[[-47.0486,-23.0514],[-47.0722,-23.0235],[-47.0644,-22.992],[-47.0289,-22.9696],[-46.9821,-22.9042],[-46.9397,-22.9279],[-46.8785,-22.9275],[-46.8785,-22.9271],[-46.8507,-22.8766],[-46.8584,-22.8362],[-46.8908,-22.8171],[-46.9049,-22.7628],[-46.9574,-22.7292],[-46.9665,-22.7453],[-47.069,-22.7296],[-47.1013,-22.7504],[-47.0954,-22.7802],[-47.1199,-22.8103],[-47.1637,-22.8055],[-47.1577,-22.8609],[-47.1786,-22.9117],[-47.2468,-22.9095],[-47.2018,-22.93],[-47.2067,-22.9954],[-47.2331,-23.0072],[-47.1086,-23.0612],[-47.0883,-23.0555],[-47.0486,-23.0514]]]},"properties":{"codarea":"3509502","municipio":"Campinas"}},{"type":"Feature","geometry":{"type":"Polygon","coordinates":[[[-46.3867,-23.4747],[-46.3938,-23.4486],[-46.3584,-23.4373],[-46.3776,-23.4015],[-46.37,-23.3651],[-46.3365,-23.3348],[-46.3581,-23.3171],[-46.3642,-23.2741],[-46.4185,-23.3163],[-46.448,-23.3576],[-46.4959,-23.3482],[-46.5354,-23.3633],[-46.5666,-23.4154],[-46.5705,-23.4588],[-46.547,-23.5064],[-46.5111,-23.4788],[-46.4605,-23.483],[-46.3867,-23.4747]]]},"properties":{"codarea":"3518800","municipio":"Guarulhos"}},{"type":"Feature","geometry":{"type":"Polygon","coordinates":[[[-46.8078,-23.6091],[-46.8064,-23.584],[-46.7731,-23.5701],[-46.76,-23.5292],[-46.7748,-23.4644],[-46.7995,-23.4714],[-46.8174,-23.5207],[-46.8173,-23.5819],[-46.8078,-23.6091]]]},"properties":{"codarea":"3534401","municipio":"Osasco"}},{"type":"Feature","geometry":{"type":"Polygon","coordinates":[[[-46.6513,-23.731],[-46.6228,-23.7862],[-46.6326,-23.8511],[-46.618,-23.8852],[-46.6119,-23.9678],[-46.5645,-23.9529],[-46.5405,-23.9235],[-46.4962,-23.8996],[-46.4103,-23.8154],[-46.4554,-23.7905],[-46.5203,-23.7353],[-46.5168,-23.7054],[-46.5546,-23.6809],[-46.5672,-23.6502],[-46.5834,-23.641],[-46.6163,-23.658],[-46.5788,-23.69],[-46.6196,-23.739],[-46.6513,-23.731]]]},"properties":{"codarea":"3548708","municipio":"São Bernardo do Campo"}},{"type":"Feature","geometry":{"type":"Polygon","coordinates":[[[-46.6119,-23.9678],[-46.618,-23.8852],[-46.6326,-23.8511],[-46.6228,-23.7862],[-46.6513,-23.731],[-46.6164,-23.7105],[-46.6339,-23.688],[-46.6163,-23.658],[-46.5834,-23.641],[-46.5793,-23.6045],[-46.548,-23.6061],[-46.4855,-23.623],[-46.4723,-23.6388],[-46.4211,-23.6437],[-46.3948,-23.6125],[-46.3776,-23.5878],[-46.3923,-23.5305],[-46.3664,-23.5122],[-46.3867,-23.4747],[-46.4605,-23.483],[-46.5111,-23.4788],[-46.547,-23.5064],[-46.5705,-23.4588],[-46.5666,-23.4154],[-46.5354,-23.3633],[-46.6002,-23.3882],[-46.6343,-23.4293],[-46.6698,-23.4186],[-46.7004,-23.4225],[-46.7355,-23.3881],[-46.823,-23.401],[-46.8233,-23.4224],[-46.8007,-23.4704],[-46.7995,-23.4714],[-46.7748,-23.4644],[-46.76,-23.5292],[-46.7731,-23.5701],[-46.8064,-23.584],[-46.8078,-23.6091],[-46.7927,-23.6472],[-46.8015,-23.6854],[-46.796,-23.7391],[-46.7774,-23.7672],[-46.8011,-23.8098],[-46.7626,-23.8279],[-46.7766,-23.8926],[-46.8107,-23.9205],[-46.8069,-23.9382],[-46.7148,-23.9962],[-46.6833,-23.9824],[-46.6499,-24.0016],[-46.6119,-23.9678]]]},"properties":{"codarea":"3550308","municipio":"São Paulo"}},{"type":"Feature","geometry":{"type":"Polygon","coordinates":[[[-46.3919,-23.9986],[-46.3551,-23.9711],[-46.3863,-23.933],[-46.4452,-23.9415],[-46.4503,-23.9193],[-46.4962,-23.8996],[-46.5405,-23.9235],[-46.5645,-23.9529],[-46.6119,-23.9678],[-46.6499,-24.0016],[-46.6425,-24.0102],[-46.5931,-23.9975],[-46.5681,-23.9694],[-46.5268,-23.9464],[-46.5093,-23.9878],[-46.4756,-24.0052],[-46.4216,-23.9783],[-46.3919,-23.9986]]]},"properties":{"codarea":"3551009","municipio":"São Vicente"}}]}